[
    {
        "CCSDS_OMM_VERS": "3.0",
        "COMMENT": "GENERATED VIA SPACE-TRACK.ORG API",
        "CREATION_DATE": "2025-05-03T17:28:03",
        "ORIGINATOR": "18 SPCS",
        "OBJECT_NAME": "NAVSTAR 69 (USA 248)",
        "OBJECT_ID": "2014-008A",
        "CENTER_NAME": "EARTH",
        "REF_FRAME": "TEME",
        "TIME_SYSTEM": "UTC",
        "MEAN_ELEMENT_THEORY": "SGP4",
        "EPOCH": "2025-05-03T08:26:49.166016",
        "MEAN_MOTION": "2.00560877",
        "ECCENTRICITY": "0.00781340",
        "INCLINATION": "53.6105",
        "RA_OF_ASC_NODE": "166.0284",
        "ARG_OF_PERICENTER": "224.8261",
        "MEAN_ANOMALY": "134.6024",
        "EPHEMERIS_TYPE": "0",
        "CLASSIFICATION_TYPE": "U",
        "NORAD_CAT_ID": "39533",
        "ELEMENT_SET_NO": "999",
        "REV_AT_EPOCH": "8146",
        "BSTAR": "0.00000000000000",
        "MEAN_MOTION_DOT": "0.00000016",
        "MEAN_MOTION_DDOT": "0.0000000000000",
        "SEMIMAJOR_AXIS": "26560.589",
        "PERIOD": "717.986",
        "APOAPSIS": "20389.982",
        "PERIAPSIS": "19974.925",
        "OBJECT_TYPE": "PAYLOAD",
        "RCS_SIZE": "LARGE",
        "COUNTRY_CODE": "US",
        "LAUNCH_DATE": "2014-02-21",
        "SITE": "AFETR",
        "DECAY_DATE": null,
        "FILE": "4717971",
        "GP_ID": "286759792",
        "TLE_LINE0": "0 NAVSTAR 69 (USA 248)",
        "TLE_LINE1": "1 39533U 14008A   25123.35195794  .00000016  00000-0  00000-0 0  9999",
        "TLE_LINE2": "2 39533  53.6105 166.0284 0078134 224.8261 134.6024  2.00560877 81464"
    }
]